[{"OBJECT_NAME":"HORS 2","OBJECT_ID":"2023-091AG","EPOCH":"2026-03-09T22:11:34.810944","MEAN_MOTION":15.2928008,"ECCENTRICITY":0.00098173,"INCLINATION":97.5195,"RA_OF_ASC_NODE":134.7443,"ARG_OF_PERICENTER":79.3164,"MEAN_ANOMALY":280.9181,"EPHEMERIS_TYPE":0,"CLASSIFICATION_TYPE":"U","NORAD_CAT_ID":57196,"ELEMENT_SET_NO":999,"REV_AT_EPOCH":14934,"BSTAR":0.00059338338,"MEAN_MOTION_DOT":0.00016821,"MEAN_MOTION_DDOT":0},{"OBJECT_NAME":"STARLINK-30923","OBJECT_ID":"2023-178H","EPOCH":"2026-03-09T23:26:17.608416","MEAN_MOTION":15.30193411,"ECCENTRICITY":0.00012918,"INCLINATION":53.1616,"RA_OF_ASC_NODE":359.8171,"ARG_OF_PERICENTER":92.4141,"MEAN_ANOMALY":267.7007,"EPHEMERIS_TYPE":0,"CLASSIFICATION_TYPE":"U","NORAD_CAT_ID":58381,"ELEMENT_SET_NO":999,"REV_AT_EPOCH":12986,"BSTAR":4.711884e-5,"MEAN_MOTION_DOT":1.036e-5,"MEAN_MOTION_DDOT":0}]
